GSAT0101 (PRN E11)      
1 37846U 11060A   24070.59038482 -.00000094  00000+0  00000+0 0  9990
2 37846  57.1269   4.2009 0004048   0.9151 359.0813  1.70475681 76996
GSAT0102 (PRN E12)      
1 37847U 11060B   24075.36853573 -.00000108  00000+0  00000+0 0  9993
2 37847  57.1277   4.0716 0005128 340.5417 117.7805  1.70475226 77083
GSAT0103 (PRN E19)      
1 38857U 12055A   24077.08212499 -.00000003  00000+0  00000+0 0  9991
2 38857  55.3621 124.1355 0005270 267.6966  92.3107  1.70473587 70991
GSAT0104 (PRN E20)      
1 38858U 12055B   24075.29159274 -.00000001  00000+0  00000+0 0  9992
2 38858  55.3626 124.1864 0002996 263.1608  96.8769  1.70473746 70965
GSAT0201 (PRN E18)      
1 40128U 14050A   24076.38068143 -.00000063  00000+0  00000+0 0  9995
2 40128  49.7505 306.7902 1607231 147.6212 223.3476  1.85519539 63054
GSAT0202 (PRN E14)      
1 40129U 14050B   24077.17831918 -.00000057  00000+0  00000+0 0  9995
2 40129  49.7668 305.8335 1605771 148.4561 222.2616  1.85520304 65236
GSAT0203 (PRN E26)      
1 40544U 15017A   24073.30254099 -.00000102  00000+0  00000+0 0  9991
2 40544  56.9222   4.0745 0004144 291.6220  68.3342  1.70475448 55129
GSAT0204 (PRN E22)      
1 40545U 15017B   24074.14320105 -.00000105  00000+0  00000+0 0  9990
2 40545  56.9283   4.0665 0003375 281.1733  78.7899  1.70475327 18189
GSAT0205 (PRN E24)      
1 40889U 15045A   24076.84456596  .00000028  00000+0  00000+0 0  9998
2 40889  55.2656 244.3185 0005887  44.3383 315.6720  1.70473651 52993
GSAT0206 (PRN E30)      
1 40890U 15045B   24075.30543699  .00000030  00000+0  00000+0 0  9994
2 40890  55.2642 244.3563 0003840  46.2777 313.7129  1.70473690 52990
GSAT0209 (PRN E09)      
1 41174U 15079A   24072.54273301  .00000019  00000+0  00000+0 0  9997
2 41174  55.3789 123.9689 0004616 302.9071  57.1355  1.70474650 50682
GSAT0208 (PRN E08)      
1 41175U 15079B   24077.45505889 -.00000001  00000+0  00000+0 0  9994
2 41175  55.3797 123.8317 0004223 301.5343  58.4922  1.70474689 51340
GSAT0211 (PRN E02)      
1 41549U 16030A   24074.64457120  .00000030  00000+0  00000+0 0  9990
2 41549  55.4140 244.3756 0003500  19.1697 340.8001  1.70473655 48619
GSAT0210 (PRN E01)      
1 41550U 16030B   24076.10899448  .00000030  00000+0  00000+0 0  9998
2 41550  55.4111 244.3364 0001211 357.6320   2.3289  1.70473751 48631
GSAT0207 (PRN E07)      
1 41859U 16069A   24075.76931632 -.00000003  00000+0  00000+0 0  9996
2 41859  55.0449 123.9045 0005163 290.7537  69.2607  1.70474715 45362
GSAT0212 (PRN E03)      
1 41860U 16069B   24075.03714384  .00000000  00000+0  00000+0 0  9997
2 41860  55.0417 123.9214 0003428 309.7138  50.3288  1.70474893 45607
GSAT0213 (PRN E04)      
1 41861U 16069C   24077.16453619 -.00000003  00000+0  00000+0 0  9999
2 41861  55.0454 123.8690 0005521 274.7533  85.2511  1.70473526 45509
GSAT0214 (PRN E05)      
1 41862U 16069D   24074.96434658  .00000001  00000+0  00000+0 0  9994
2 41862  55.0430 123.9236 0004700 275.5406  84.4789  1.70474973 45591
GSAT0215 (PRN E21)      
1 43055U 17079A   24076.04030420  .00000030  00000+0  00000+0 0  9994
2 43055  55.3883 244.1605 0000736  22.1381 337.8261  1.70474387 38952
GSAT0216 (PRN E25)      
1 43056U 17079B   24076.91865947  .00000028  00000+0  00000+0 0  9998
2 43056  55.3883 244.1362 0001720 316.3645  43.5851  1.70474520 38986
GSAT0217 (PRN E27)      
1 43057U 17079C   24073.03300014  .00000027  00000+0  00000+0 0  9997
2 43057  55.3924 244.2419 0002160 350.7256   9.2233  1.70474360 38903
GSAT0218 (PRN E31)      
1 43058U 17079D   24076.77253818  .00000029  00000+0  00000+0 0  9993
2 43058  55.3864 244.1366 0001974 300.9948  58.9487  1.70474451 38996
GSAT0221 (PRN E15)      
1 43564U 18060A   24073.15310948 -.00000102  00000+0  00000+0 0  9996
2 43564  57.3028   4.0542 0005044 303.0742  56.8777  1.70475060 35093
GSAT0222 (PRN E33)      
1 43565U 18060B   24075.13123991 -.00000108  00000+0  00000+0 0  9993
2 43565  57.3054   4.0028 0003358 282.1792  77.7846  1.70475082 35161
GSAT0219 (PRN E36)      
1 43566U 18060C   24073.59351374 -.00000103  00000+0  00000+0 0  9995
2 43566  57.3052   4.0464 0004542 314.0609  45.9024  1.70475319 35115
GSAT0220 (PRN E13)      
1 43567U 18060D   24073.22747821 -.00000102  00000+0  00000+0 0  9991
2 43567  57.3051   4.0560 0004572 309.8424  50.1177  1.70475162 35092
GSAT0223 (PRN E34)      
1 49809U 21116A   24074.42529437 -.00000106  00000+0  00000+0 0  9990
2 49809  57.2961   3.9185 0001376 281.4869 183.9787  1.70475239 14122
GSAT0224 (PRN E10)      
1 49810U 21116B   24075.39474642 -.00000108  00000+0  00000+0 0  9998
2 49810  57.2968   3.8907 0001282 308.3744 144.5609  1.70475412 14162
